METAR WALS 220800Z 26004KT 5000 -RA SCT017 25/24 Q1010 NOSIG=
METAR WALS 220830Z VRB01KT 8000 FEW017 25/24 Q1010 RERA NOSIG=
